%
(AXIS0_MOTOREXTENSIONOP102_ADAPTIVECONTOUR)
(T1 D=6. CR=0. - ZMIN=-5.5 - FLAT END MILL)
N10 G90 G94 G17 G91.1
N15 G21
(-ATTENTION- PROPERTY SAFE RETRACTS IS SET TO CLEARANCE HEIGHT.)
(ENSURE THE CLEARANCE HEIGHT WILL CLEAR THE PART AND OR FIXTURES.)
(RAISE THE Z-AXIS TO A SAFE HEIGHT BEFORE STARTING THE PROGRAM.)
(WHEN USING FUSION FOR PERSONAL USE, THE FEEDRATE OF RAPID)
(MOVES IS REDUCED TO MATCH THE FEEDRATE OF CUTTING MOVES,)
(WHICH CAN INCREASE MACHINING TIME. UNRESTRICTED RAPID MOVES)
(ARE AVAILABLE WITH A FUSION SUBSCRIPTION.)
(2D ADAPTIVE1)
N20 T1 M6
N25 S16000 M3
N30 G17 G90 G94
N35 G54
N40 G64 P0.1 Q0.1
N45 M8
N50 G0 X-0.47 Y-6.282
N55 G43 Z15. H1
N60 G1 Z5. F1000.
N65 Z-2.9
N70 Z-3.5
N75 Z-5.5
N80 G3 X0. Y-3.016 I-14.839 J3.801
N85 G1 Y-2.892
N90 X-0.538 Y-2.143
N95 X-0.933 Y-1.309
N100 X-1.212 Y-0.429
N105 X-1.401 Y0.473
N110 X-1.527 Y1.387
N115 X-1.609 Y2.306
N120 X-1.661 Y3.228
N125 X-1.694 Y4.15
N130 X-1.715 Y5.072
N135 X-1.728 Y5.994
N140 X-1.737 Y6.917
N145 X-1.742 Y7.84
N150 X-1.745 Y8.762
N155 X-1.748 Y10.607
N160 X-1.75 Y14.298
N165 Y47.512
N170 Y72.883
N175 X-1.674 Y73.338
N180 X-1.349 Y74.201
N185 X-0.77 Y74.92
N190 X-0.035 Y75.478
N195 X0.791 Y75.89
N200 X1.666 Y76.181
N205 X2.567 Y76.381
N210 X3.48 Y76.514
N215 X4.398 Y76.6
N220 X5.319 Y76.656
N225 X6.241 Y76.691
N230 X7.163 Y76.713
N235 X8.086 Y76.727
N240 X9.008 Y76.736
N245 X9.931 Y76.741
N250 X10.854 Y76.744
N255 X12.699 Y76.748
N260 X16.389 Y76.75
N265 X21.925
N270 X72.668
N275 X92.965
N280 X93.417 Y76.657
N285 X94.27 Y76.304
N290 X94.974 Y75.709
N295 X95.519 Y74.964
N300 X95.919 Y74.133
N305 X96.202 Y73.255
N310 X96.395 Y72.352
N315 X96.523 Y71.439
N320 X96.606 Y70.52
N325 X96.66 Y69.599
N330 X96.693 Y68.677
N335 X96.715 Y67.754
N340 X96.728 Y66.832
N345 X96.736 Y65.909
N350 X96.741 Y64.987
N355 X96.745 Y64.064
N360 X96.748 Y62.219
N365 X96.75 Y58.528
N370 Y48.38
N375 Y2.25
N380 X96.704 Y1.791
N385 X96.424 Y0.912
N390 X95.873 Y0.171
N395 X95.156 Y-0.409
N400 X94.34 Y-0.84
N405 X93.47 Y-1.147
N410 X92.572 Y-1.358
N415 X91.66 Y-1.498
N420 X90.742 Y-1.59
N425 X89.822 Y-1.649
N430 X88.9 Y-1.687
N435 X87.977 Y-1.711
N440 X87.055 Y-1.725
N445 X86.132 Y-1.735
N450 X85.21 Y-1.74
N455 X84.287 Y-1.744
N460 X82.442 Y-1.748
N465 X78.752 Y-1.75
N470 X43.693
N475 X4.021
N480 X3.101 Y-1.674
N485 X2.256 Y-1.303
N490 X1.541 Y-0.72
N495 X0.97 Y0.004
N500 X0.533 Y0.817
N505 X0.211 Y1.682
N510 X-0.019 Y2.575
N515 X-0.179 Y3.484
N520 X-0.288 Y4.4
N525 X-0.361 Y5.32
N530 X-0.41 Y6.241
N535 X-0.441 Y7.163
N540 X-0.462 Y8.085
N545 X-0.476 Y9.008
N550 X-0.484 Y9.93
N555 X-0.49 Y10.853
N560 X-0.494 Y11.776
N565 X-0.497 Y13.621
N570 X-0.5 Y17.311
N575 Y57.906
N580 Y70.822
N585 X-0.353 Y71.733
N590 X0.033 Y72.571
N595 X0.608 Y73.293
N600 X1.318 Y73.881
N605 X2.118 Y74.341
N610 X2.973 Y74.687
N615 X3.86 Y74.94
N620 X4.765 Y75.12
N625 X5.679 Y75.245
N630 X6.598 Y75.331
N635 X7.519 Y75.388
N640 X8.441 Y75.427
N645 X9.363 Y75.452
N650 X10.285 Y75.469
N655 X11.208 Y75.48
N660 X12.13 Y75.487
N665 X13.053 Y75.492
N670 X13.976 Y75.495
N675 X15.821 Y75.498
N680 X19.511 Y75.5
N685 X35.196
N690 X85.939
N695 X90.552
N700 X91.471 Y75.423
N705 X92.337 Y75.104
N710 X93.095 Y74.578
N715 X93.723 Y73.902
N720 X94.219 Y73.125
N725 X94.597 Y72.283
N730 X94.875 Y71.403
N735 X95.074 Y70.502
N740 X95.214 Y69.59
N745 X95.309 Y68.673
N750 X95.374 Y67.752
N755 X95.417 Y66.831
N760 X95.446 Y65.909
N765 X95.465 Y64.986
N770 X95.477 Y64.064
N775 X95.485 Y63.141
N780 X95.49 Y62.219
N785 X95.494 Y61.296
N790 X95.497 Y59.451
N795 X95.5 Y55.76
N800 Y31.773
N805 Y4.095
N810 X95.331 Y3.188
N815 X94.928 Y2.358
N820 X94.34 Y1.647
N825 X93.62 Y1.07
N830 X92.813 Y0.621
N835 X91.954 Y0.285
N840 X91.065 Y0.04
N845 X90.159 Y-0.134
N850 X89.244 Y-0.255
N855 X88.325 Y-0.337
N860 X87.404 Y-0.393
N865 X86.482 Y-0.43
N870 X85.56 Y-0.454
N875 X84.638 Y-0.47
N880 X83.715 Y-0.481
N885 X82.793 Y-0.487
N890 X81.87 Y-0.492
N895 X80.947 Y-0.495
N900 X79.102 Y-0.498
N905 X75.412 Y-0.5
N910 X74.489
N915 X23.746
N920 X6.216
N925 X5.294 Y-0.482
N930 X4.403 Y-0.244
N935 X3.596 Y0.203
N940 X2.906 Y0.816
N945 X2.344 Y1.547
N950 X1.903 Y2.358
N955 X1.57 Y3.218
N960 X1.323 Y4.107
N965 X1.146 Y5.013
N970 X1.02 Y5.927
N975 X0.933 Y6.845
N980 X0.873 Y7.766
N985 X0.832 Y8.688
N990 X0.805 Y9.61
N995 X0.786 Y10.532
N1000 X0.774 Y11.455
N1005 X0.766 Y12.377
N1010 X0.76 Y13.3
N1015 X0.757 Y14.222
N1020 X0.753 Y16.068
N1025 X0.751 Y19.758
N1030 X0.75 Y29.907
N1035 Y68.656
N1040 X0.796 Y69.578
N1045 X1.041 Y70.467
N1050 X1.484 Y71.276
N1055 X2.087 Y71.974
N1060 X2.809 Y72.549
N1065 X3.611 Y73.005
N1070 X4.464 Y73.355
N1075 X5.349 Y73.617
N1080 X6.252 Y73.808
N1085 X7.164 Y73.945
N1090 X8.082 Y74.041
N1095 X9.002 Y74.108
N1100 X9.923 Y74.154
N1105 X10.845 Y74.186
N1110 X11.768 Y74.207
N1115 X12.69 Y74.221
N1120 X13.613 Y74.231
N1125 X14.535 Y74.237
N1130 X15.458 Y74.242
N1135 X17.303 Y74.246
N1140 X20.071 Y74.249
N1145 X31.142 Y74.25
N1150 X60.665
N1155 X88.344
N1160 X89.266 Y74.239
N1165 X90.173 Y74.068
N1170 X91.014 Y73.688
N1175 X91.751 Y73.134
N1180 X92.368 Y72.448
N1185 X92.864 Y71.67
N1190 X93.248 Y70.831
N1195 X93.537 Y69.955
N1200 X93.751 Y69.057
N1205 X93.904 Y68.148
N1210 X94.013 Y67.231
N1215 X94.088 Y66.312
N1220 X94.141 Y65.391
N1225 X94.177 Y64.469
N1230 X94.201 Y63.547
N1235 X94.217 Y62.624
N1240 X94.228 Y61.702
N1245 X94.236 Y60.779
N1250 X94.24 Y59.856
N1255 X94.244 Y58.934
N1260 X94.247 Y57.089
N1265 X94.249 Y54.321
N1270 X94.25 Y34.946
N1275 Y6.345
N1280 X94.207 Y5.424
N1285 X93.964 Y4.534
N1290 X93.521 Y3.724
N1295 X92.918 Y3.026
N1300 X92.197 Y2.451
N1305 X91.395 Y1.995
N1310 X90.541 Y1.644
N1315 X89.657 Y1.383
N1320 X88.754 Y1.192
N1325 X87.842 Y1.055
N1330 X86.924 Y0.958
N1335 X86.004 Y0.892
N1340 X85.082 Y0.845
N1345 X84.16 Y0.814
N1350 X83.238 Y0.793
N1355 X82.315 Y0.779
N1360 X81.393 Y0.769
N1365 X80.47 Y0.763
N1370 X79.548 Y0.758
N1375 X77.703 Y0.754
N1380 X74.935 Y0.751
N1385 X63.863 Y0.75
N1390 X43.566
N1395 X8.507
N1400 X7.585 Y0.751
N1405 X6.665 Y0.829
N1410 X5.783 Y1.1
N1415 X4.985 Y1.561
N1420 X4.296 Y2.175
N1425 X3.727 Y2.902
N1430 X3.274 Y3.705
N1435 X2.924 Y4.559
N1440 X2.66 Y5.443
N1445 X2.465 Y6.345
N1450 X2.325 Y7.257
N1455 X2.225 Y8.174
N1460 X2.154 Y9.094
N1465 X2.124 Y9.66
N1470 X2.107 Y9.839
N1475 X2.075 Y10.016
N1480 X2.029 Y10.19
N1485 X1.972 Y10.381
N1490 X1.934 Y10.59
N1495 X1.867 Y11.009
N1500 X1.835 Y11.218
N1505 X1.778 Y11.637
N1510 X1.757 Y11.847
N1515 X1.75 Y12.475
N1520 Y62.525
N1525 X1.757 Y63.153
N1530 X1.778 Y63.363
N1535 X1.856 Y64.282
N1540 X1.912 Y65.203
N1545 X1.946 Y66.125
N1550 X1.966 Y67.047
N1555 X2.023 Y67.968
N1560 X2.246 Y68.863
N1565 X2.652 Y69.692
N1570 X3.218 Y70.42
N1575 X3.908 Y71.033
N1580 X4.685 Y71.53
N1585 X5.52 Y71.921
N1590 X6.393 Y72.221
N1595 X7.288 Y72.444
N1600 X8.196 Y72.608
N1605 X9.111 Y72.726
N1610 X10.03 Y72.81
N1615 X10.951 Y72.869
N1620 X11.872 Y72.91
N1625 X12.795 Y72.938
N1630 X13.717 Y72.958
N1635 X14.639 Y72.972
N1640 X15.562 Y72.981
N1645 X16.485 Y72.987
N1650 X17.407 Y72.991
N1655 X19.252 Y72.996
N1660 X22.02 Y72.999
N1665 X31.246 Y73.
N1670 X46.008
N1675 X86.603
N1680 X87.525 Y72.993
N1685 X88.439 Y72.866
N1690 X89.305 Y72.549
N1695 X90.086 Y72.057
N1700 X90.756 Y71.423
N1705 X91.309 Y70.685
N1710 X91.75 Y69.874
N1715 X92.09 Y69.017
N1720 X92.347 Y68.13
N1725 X92.537 Y67.228
N1730 X92.675 Y66.315
N1735 X92.774 Y65.395
N1740 X92.781 Y65.344
N1745 X92.794 Y65.295
N1750 X92.814 Y65.247
N1755 X92.9 Y65.038
N1760 X92.976 Y64.794
N1765 X93.028 Y64.619
N1770 X93.066 Y64.41
N1775 X93.133 Y63.991
N1780 X93.165 Y63.782
N1785 X93.222 Y63.363
N1790 X93.243 Y63.153
N1795 X93.25 Y62.525
N1800 Y12.475
N1805 X93.243 Y11.847
N1810 X93.222 Y11.637
N1815 X93.144 Y10.718
N1820 X93.088 Y9.797
N1825 X93.054 Y8.875
N1830 X93.034 Y7.953
N1835 X92.979 Y7.032
N1840 X92.756 Y6.136
N1845 X92.351 Y5.308
N1850 X91.785 Y4.579
N1855 X91.095 Y3.966
N1860 X90.318 Y3.469
N1865 X89.482 Y3.078
N1870 X88.609 Y2.779
N1875 X87.714 Y2.555
N1880 X86.806 Y2.392
N1885 X85.891 Y2.274
N1890 X84.972 Y2.19
N1895 X84.052 Y2.131
N1900 X83.13 Y2.09
N1905 X82.208 Y2.061
N1910 X81.285 Y2.042
N1915 X80.363 Y2.028
N1920 X79.44 Y2.019
N1925 X78.518 Y2.013
N1930 X77.595 Y2.009
N1935 X75.75 Y2.004
N1940 X72.982 Y2.001
N1945 X63.756 Y2.
N1950 X48.995
N1955 X9.323
N1960 X8.401 Y2.048
N1965 X7.503 Y2.26
N1970 X6.67 Y2.656
N1975 X5.932 Y3.21
N1980 X5.307 Y3.888
N1985 X4.797 Y4.657
N1990 X4.393 Y5.487
N1995 X4.083 Y6.356
N2000 X3.956 Y6.838
N2005 X3.828 Y7.197
N2010 X3.639 Y7.527
N2015 X3.395 Y7.819
N2020 X3.282 Y7.932
N2025 X3.152 Y8.077
N2030 X2.975 Y8.287
N2035 X2.834 Y8.496
N2040 X2.71 Y8.706
N2045 X2.653 Y8.812
N2050 X2.599 Y8.915
N2055 X2.443 Y9.22
N2060 X2.186 Y9.753
N2065 X2.1 Y9.962
N2070 X2.029 Y10.19
N2075 X1.992 Y10.275
N2080 X1.942 Y10.353
N2085 X1.888 Y10.403 Z-5.495
N2090 X1.834 Y10.452 Z-5.482
N2095 X1.782 Y10.5 Z-5.459
N2100 X1.709 Y10.529 Z-5.421
N2105 X1.641 Y10.556 Z-5.371
N2110 X1.581 Y10.58 Z-5.312
N2115 X1.534 Y10.585 Z-5.256
N2120 X1.495 Y10.589 Z-5.195
N2125 X1.463 Y10.592 Z-5.129
N2130 Z-5.128
N2135 X1.438 Y10.591 Z-5.054
N2140 X1.423 Y10.59 Z-4.978
N2145 X1.418 Z-4.9
N2150 Z5.
N2155 X1.085 Y62.176
N2160 Z-4.3
N2165 Z-4.9
N2170 X1.089 Y62.182 Z-4.994
N2175 X1.103 Y62.199 Z-5.085
N2180 X1.125 Y62.227 Z-5.172
N2185 X1.156 Y62.266 Z-5.253
N2190 X1.194 Y62.313 Z-5.324
N2195 X1.239 Y62.37 Z-5.385
N2200 X1.288 Y62.432 Z-5.435
N2205 X1.343 Y62.5 Z-5.471
N2210 X1.4 Y62.572 Z-5.493
N2215 X1.458 Y62.646 Z-5.5
N2220 G3 X1.778 Y63.363 I-1.239 J0.984
N2225 G1 X1.835 Y63.782
N2230 X1.867 Y63.991
N2235 X1.934 Y64.41
N2240 X1.972 Y64.619
N2245 X2.035 Y64.829
N2250 X2.1 Y65.038
N2255 X2.186 Y65.247
N2260 X2.388 Y65.666
N2265 X2.748 Y66.516
N2270 X3.081 Y67.376
N2275 X3.524 Y68.186
N2280 X4.093 Y68.912
N2285 X4.77 Y69.538
N2290 X5.531 Y70.06
N2295 X6.352 Y70.481
N2300 X7.214 Y70.811
N2305 X8.101 Y71.065
N2310 X9.004 Y71.255
N2315 X9.915 Y71.396
N2320 X10.832 Y71.499
N2325 X11.752 Y71.573
N2330 X12.673 Y71.626
N2335 X13.595 Y71.664
N2340 X14.517 Y71.69
N2345 X15.439 Y71.709
N2350 X16.362 Y71.722
N2355 X17.284 Y71.73
N2360 X18.207 Y71.737
N2365 X19.13 Y71.741
N2370 X20.975 Y71.746
N2375 X23.743 Y71.749
N2380 X32.046 Y71.75
N2385 X50.498
N2390 X84.634
N2395 X85.557 Y71.749
N2400 X86.478 Y71.699
N2405 X87.378 Y71.496
N2410 X88.218 Y71.113
N2415 X88.964 Y70.571
N2420 X89.601 Y69.903
N2425 X90.123 Y69.143
N2430 X90.476 Y68.446
N2435 X90.611 Y68.215
N2440 X90.774 Y68.002
N2445 X90.962 Y67.812
N2450 X91.09 Y67.697
N2455 X91.718 Y67.068
N2460 X91.848 Y66.923
N2465 X92.026 Y66.713
N2470 X92.166 Y66.504
N2475 X92.29 Y66.294
N2480 X92.347 Y66.188
N2485 X92.401 Y66.085
N2490 X92.557 Y65.78
N2495 X92.814 Y65.247
N2500 G3 X93.477 Y64.941 I0.531 J0.279
N2505 G1 X93.568 Y64.962 Z-5.493
N2510 X93.658 Y64.982 Z-5.471
N2515 X93.743 Y65.002 Z-5.435
N2520 X93.821 Y65.019 Z-5.385
N2525 X93.891 Y65.035 Z-5.324
N2530 X93.95 Y65.048 Z-5.253
N2535 X93.998 Y65.059 Z-5.172
N2540 X94.034 Y65.067 Z-5.085
N2545 X94.055 Y65.072 Z-4.994
N2550 X94.062 Y65.074 Z-4.9
N2555 Z5.
N2560 X93.915 Y12.824
N2565 Z-4.3
N2570 Z-4.9
N2575 X93.911 Y12.818 Z-4.994
N2580 X93.897 Y12.801 Z-5.085
N2585 X93.875 Y12.773 Z-5.172
N2590 X93.844 Y12.734 Z-5.253
N2595 X93.806 Y12.687 Z-5.324
N2600 X93.761 Y12.631 Z-5.385
N2605 X93.712 Y12.568 Z-5.435
N2610 X93.657 Y12.5 Z-5.471
N2615 X93.6 Y12.428 Z-5.493
N2620 X93.542 Y12.354 Z-5.5
N2625 G3 X93.222 Y11.637 I1.239 J-0.984
N2630 G1 X93.165 Y11.218
N2635 X93.133 Y11.009
N2640 X93.066 Y10.59
N2645 X93.028 Y10.381
N2650 X92.965 Y10.171
N2655 X92.9 Y9.962
N2660 X92.814 Y9.753
N2665 X92.612 Y9.334
N2670 X92.252 Y8.484
N2675 X91.92 Y7.623
N2680 X91.477 Y6.814
N2685 X90.908 Y6.088
N2690 X90.231 Y5.461
N2695 X89.47 Y4.94
N2700 X88.649 Y4.519
N2705 X87.788 Y4.188
N2710 X86.9 Y3.935
N2715 X85.998 Y3.744
N2720 X85.086 Y3.603
N2725 X84.169 Y3.501
N2730 X83.249 Y3.426
N2735 X82.328 Y3.374
N2740 X81.407 Y3.336
N2745 X80.484 Y3.31
N2750 X79.562 Y3.291
N2755 X78.639 Y3.278
N2760 X77.717 Y3.27
N2765 X76.794 Y3.263
N2770 X75.872 Y3.259
N2775 X74.026 Y3.254
N2780 X71.259 Y3.251
N2785 X62.955 Y3.25
N2790 X44.503
N2795 X11.289
N2800 X10.367 Y3.261
N2805 X9.451 Y3.371
N2810 X8.571 Y3.65
N2815 X7.766 Y4.101
N2820 X7.062 Y4.696
N2825 X6.468 Y5.402
N2830 X6.368 Y5.552
N2835 X6.131 Y5.849
N2840 X5.846 Y6.099
N2845 X5.521 Y6.296
N2850 X5.168 Y6.47
N2855 X4.749 Y6.684
N2860 X4.539 Y6.803
N2865 X4.51 Y6.821
N2870 X4.215 Y7.03
N2875 X3.91 Y7.303
N2880 X3.395 Y7.819
N2885 G3 X2.668 Y7.89 I-0.41 J-0.438
N2890 G1 X2.588 Y7.841 Z-5.493
N2895 X2.51 Y7.792 Z-5.471
N2900 X2.436 Y7.746 Z-5.435
N2905 X2.368 Y7.704 Z-5.385
N2910 X2.307 Y7.666 Z-5.324
N2915 X2.256 Y7.634 Z-5.253
N2920 X2.214 Y7.608 Z-5.172
N2925 X2.183 Y7.589 Z-5.085
N2930 X2.165 Y7.577 Z-4.994
N2935 X2.158 Y7.573 Z-4.9
N2940 Z5.
N2945 X1.361 Y64.753
N2950 Z-4.3
N2955 Z-4.9
N2960 X1.367 Y64.757 Z-4.994
N2965 X1.385 Y64.769 Z-5.085
N2970 X1.415 Y64.789 Z-5.172
N2975 X1.456 Y64.816 Z-5.253
N2980 X1.507 Y64.85 Z-5.324
N2985 X1.567 Y64.89 Z-5.385
N2990 X1.634 Y64.934 Z-5.435
N2995 X1.706 Y64.982 Z-5.471
N3000 X1.783 Y65.032 Z-5.493
N3005 X1.861 Y65.084 Z-5.5
N3010 G3 X2.388 Y65.666 I-0.873 J1.32
N3015 G1 X2.443 Y65.78
N3020 X2.599 Y66.085
N3025 X2.653 Y66.188
N3030 X2.71 Y66.294
N3035 X2.834 Y66.504
N3040 X2.975 Y66.713
N3045 X3.152 Y66.923
N3050 X3.282 Y67.068
N3055 X3.91 Y67.697
N3060 X4.214 Y67.97
N3065 X4.51 Y68.179
N3070 X4.539 Y68.197
N3075 X4.749 Y68.316
N3080 X5.168 Y68.53
N3085 X5.796 Y68.839
N3090 X6.006 Y68.92
N3095 X6.867 Y69.25
N3100 X7.746 Y69.533
N3105 X8.639 Y69.764
N3110 X9.543 Y69.947
N3115 X10.455 Y70.09
N3120 X11.371 Y70.199
N3125 X12.29 Y70.281
N3130 X13.21 Y70.342
N3135 X14.132 Y70.387
N3140 X15.054 Y70.419
N3145 X15.976 Y70.443
N3150 X16.899 Y70.46
N3155 X17.821 Y70.472
N3160 X18.744 Y70.48
N3165 X19.666 Y70.486
N3170 X20.589 Y70.49
N3175 X22.434 Y70.495
N3180 X25.202 Y70.498
N3185 X32.583 Y70.5
N3190 X56.57
N3195 X83.326
N3200 X84.249 Y70.494
N3205 X85.169 Y70.428
N3210 X86.065 Y70.211
N3215 X86.903 Y69.823
N3220 X87.412 Y69.457
N3225 X87.695 Y69.284
N3230 X88.002 Y69.157
N3235 X88.324 Y69.078
N3240 X88.575 Y69.037
N3245 X88.656 Y69.017
N3250 X88.784 Y68.983
N3255 X88.994 Y68.92
N3260 X89.204 Y68.839
N3265 X89.832 Y68.53
N3270 X90.251 Y68.316
N3275 G3 X90.965 Y68.473 I0.254 J0.543
N3280 G1 X91.025 Y68.545 Z-5.493
N3285 X91.084 Y68.615 Z-5.471
N3290 X91.14 Y68.682 Z-5.435
N3295 X91.192 Y68.743 Z-5.385
N3300 X91.238 Y68.798 Z-5.324
N3305 X91.277 Y68.845 Z-5.253
N3310 X91.309 Y68.882 Z-5.172
N3315 X91.332 Y68.91 Z-5.085
N3320 X91.346 Y68.927 Z-4.994
N3325 X91.351 Y68.932 Z-4.9
N3330 Z5.
N3335 X93.639 Y10.247
N3340 Z-4.3
N3345 Z-4.9
N3350 X93.633 Y10.243 Z-4.994
N3355 X93.615 Y10.231 Z-5.085
N3360 X93.585 Y10.211 Z-5.172
N3365 X93.544 Y10.184 Z-5.253
N3370 X93.493 Y10.15 Z-5.324
N3375 X93.433 Y10.11 Z-5.385
N3380 X93.366 Y10.066 Z-5.435
N3385 X93.294 Y10.018 Z-5.471
N3390 X93.217 Y9.968 Z-5.493
N3395 X93.139 Y9.916 Z-5.5
N3400 G3 X92.612 Y9.334 I0.873 J-1.32
N3405 G1 X92.557 Y9.22
N3410 X92.401 Y8.915
N3415 X92.347 Y8.812
N3420 X92.29 Y8.706
N3425 X92.166 Y8.496
N3430 X92.026 Y8.287
N3435 X91.848 Y8.077
N3440 X91.718 Y7.932
N3445 X91.09 Y7.303
N3450 X90.786 Y7.03
N3455 X90.49 Y6.821
N3460 X90.461 Y6.803
N3465 X90.251 Y6.684
N3470 X89.832 Y6.47
N3475 X89.204 Y6.161
N3480 X88.994 Y6.08
N3485 X88.133 Y5.75
N3490 X87.254 Y5.467
N3495 X86.361 Y5.236
N3500 X85.457 Y5.053
N3505 X84.545 Y4.91
N3510 X83.629 Y4.801
N3515 X82.71 Y4.719
N3520 X81.79 Y4.658
N3525 X80.868 Y4.613
N3530 X79.946 Y4.58
N3535 X79.024 Y4.557
N3540 X78.102 Y4.54
N3545 X77.179 Y4.528
N3550 X76.256 Y4.52
N3555 X75.334 Y4.514
N3560 X74.411 Y4.51
N3565 X72.566 Y4.505
N3570 X69.798 Y4.501
N3575 X62.417 Y4.5
N3580 X38.43
N3585 X13.519
N3590 X12.597 Y4.501
N3595 X11.674 Y4.521
N3600 X10.76 Y4.642
N3605 X9.883 Y4.929
N3610 X9.069 Y5.363
N3615 X9.053 Y5.374
N3620 X8.785 Y5.529
N3625 X8.499 Y5.647
N3630 X8.199 Y5.724
N3635 X7.892 Y5.759
N3640 X7.683 Y5.769
N3645 X7.054 Y5.86
N3650 X6.519 Y5.948
N3655 G3 X5.888 Y5.581 I-0.077 J-0.595
N3660 G1 X5.852 Y5.494 Z-5.493
N3665 X5.817 Y5.41 Z-5.471
N3670 X5.784 Y5.329 Z-5.435
N3675 X5.753 Y5.255 Z-5.385
N3680 X5.726 Y5.189 Z-5.324
N3685 X5.703 Y5.132 Z-5.253
N3690 X5.684 Y5.087 Z-5.172
N3695 X5.67 Y5.053 Z-5.085
N3700 X5.662 Y5.033 Z-4.994
N3705 X5.659 Y5.026 Z-4.9
N3710 Z5.
N3715 X4.638 Y69.057
N3720 Z-4.3
N3725 Z-4.9
N3730 X4.645 Y69.055 Z-4.994
N3735 X4.667 Y69.05 Z-5.085
N3740 X4.702 Y69.042 Z-5.172
N3745 X4.749 Y69.03 Z-5.253
N3750 X4.809 Y69.015 Z-5.324
N3755 X4.878 Y68.998 Z-5.385
N3760 X4.956 Y68.979 Z-5.435
N3765 X5.041 Y68.958 Z-5.471
N3770 X5.13 Y68.936 Z-5.493
N3775 X5.221 Y68.913 Z-5.5
N3780 G3 X6.006 Y68.92 I0.38 J1.536
N3785 G1 X6.216 Y68.983
N3790 X6.344 Y69.017
N3795 X6.425 Y69.037
N3800 X7.054 Y69.141
N3805 X7.683 Y69.231
N3810 X7.892 Y69.241
N3815 X8.311 Y69.249
N3820 X8.521 Y69.25
N3825 X86.479
N3830 X86.689 Y69.249
N3835 X87.108 Y69.241
N3840 X87.317 Y69.231
N3845 X87.946 Y69.141
N3850 X88.324 Y69.078
N3855 G3 X88.956 Y69.445 I0.077 J0.595
N3860 G1 X88.992 Y69.532 Z-5.493
N3865 X89.027 Y69.616 Z-5.471
N3870 X89.06 Y69.697 Z-5.435
N3875 X89.09 Y69.771 Z-5.385
N3880 X89.117 Y69.837 Z-5.324
N3885 X89.141 Y69.894 Z-5.253
N3890 X89.159 Y69.939 Z-5.172
N3895 X89.173 Y69.972 Z-5.085
N3900 X89.181 Y69.993 Z-4.994
N3905 X89.184 Y70. Z-4.9
N3910 Z5.
N3915 X90.362 Y5.943
N3920 Z-4.3
N3925 Z-4.9
N3930 X90.355 Y5.945 Z-4.994
N3935 X90.333 Y5.95 Z-5.085
N3940 X90.298 Y5.958 Z-5.172
N3945 X90.251 Y5.97 Z-5.253
N3950 X90.191 Y5.985 Z-5.324
N3955 X90.122 Y6.002 Z-5.385
N3960 X90.044 Y6.021 Z-5.435
N3965 X89.959 Y6.042 Z-5.471
N3970 X89.87 Y6.064 Z-5.493
N3975 X89.779 Y6.087 Z-5.5
N3980 G3 X88.994 Y6.08 I-0.38 J-1.536
N3985 G1 X88.784 Y6.017
N3990 X88.656 Y5.983
N3995 X88.575 Y5.963
N4000 X87.946 Y5.86
N4005 X87.317 Y5.769
N4010 X87.108 Y5.759
N4015 X86.689 Y5.751
N4020 X86.479 Y5.75
N4025 X8.521
N4030 X8.311 Y5.751
N4035 X7.892 Y5.759
N4040 X7.8 Y5.751
N4045 X7.71 Y5.728
N4050 X7.646 Y5.692 Z-5.495
N4055 X7.582 Y5.657 Z-5.482
N4060 X7.52 Y5.623 Z-5.459
N4065 X7.469 Y5.562 Z-5.421
N4070 X7.422 Y5.506 Z-5.371
N4075 X7.381 Y5.457 Z-5.312
N4080 X7.359 Y5.404 Z-5.241
N4085 X7.342 Y5.361 Z-5.163
N4090 X7.33 Y5.33 Z-5.079
N4095 X7.322 Y5.312 Z-4.991
N4100 X7.32 Y5.305 Z-4.9
N4105 Z5.
N4110 X58.553 Y35.038
N4115 Z2.5
N4120 G3 X60.509 Y38.549 Z2.333 I-0.156 J2.387 F333.33
N4125 X56.509 Y38.887 Z2.167 I-2.109 J-1.123
N4130 X57.846 Y35.106 Z2. I1.889 J-1.459
N4135 X60.738 Y37.877 Z1.833 I0.551 J2.319
N4140 X57.027 Y39.371 Z1.667 I-2.338 J-0.451
N4145 X57.192 Y35.379 Z1.5 I1.371 J-1.943
N4150 X60.758 Y37.17 Z1.333 I1.205 J2.047
N4155 X57.662 Y39.68 Z1.167 I-2.358 J0.256
N4160 X56.649 Y35.83 Z1. I0.737 J-2.252
N4165 X60.57 Y36.49 Z0.833 I1.747 J1.596
N4170 X58.358 Y39.788 Z0.667 I-2.171 J0.935
N4175 X56.265 Y36.419 Z0.5 I0.041 J-2.36
N4180 X60.192 Y35.899 Z0.333 I2.131 J1.008
N4185 X59.052 Y39.687 Z0.167 I-1.793 J1.526
N4190 X56.072 Y37.093 Z0. I-0.652 J-2.259
N4195 X59.658 Y35.446 Z-0.167 I2.325 J0.335
N4200 X59.683 Y39.387 Z-0.333 I-1.26 J1.979
N4205 X56.085 Y37.79 Z-0.5 I-1.283 J-1.96
N4210 X59.018 Y35.171 Z-0.667 I2.312 J-0.363
N4215 X60.197 Y38.917 Z-0.833 I-0.62 J2.254
N4220 X56.302 Y38.451 Z-1. I-1.797 J-1.49
N4225 X58.327 Y35.098 Z-1.167 I2.095 J-1.023
N4230 X60.547 Y38.319 Z-1.333 I0.07 J2.327
N4235 X56.703 Y39.016 Z-1.5 I-2.147 J-0.893
N4240 X57.648 Y35.23 Z-1.667 I1.695 J-1.588
N4245 X60.706 Y37.646 Z-1.833 I0.749 J2.196
N4250 X57.25 Y39.437 Z-2. I-2.306 J-0.221
N4255 X57.04 Y35.555 Z-2.167 I1.149 J-2.009
N4260 X60.66 Y36.959 Z-2.333 I1.357 J1.871
N4265 X57.894 Y39.677 Z-2.5 I-2.261 J0.466
N4270 X56.557 Y36.042 Z-2.667 I0.505 J-2.249
N4275 X60.415 Y36.319 Z-2.833 I1.84 J1.384
N4280 X58.578 Y39.717 Z-3. I-2.016 J1.106
N4285 X56.239 Y36.648 Z-3.167 I-0.179 J-2.29
N4290 X59.994 Y35.781 Z-3.333 I2.157 J0.778
N4295 X59.241 Y39.555 Z-3.5 I-1.595 J1.644
N4300 X56.114 Y37.319 Z-3.667 I-0.841 J-2.128
N4305 X59.435 Y35.392 Z-3.833 I2.282 J0.109
N4310 X59.824 Y39.206 Z-4. I-1.037 J2.033
N4315 X56.192 Y37.993 Z-4.167 I-1.424 J-1.779
N4320 X58.789 Y35.186 Z-4.333 I2.205 J-0.565
N4325 X60.277 Y38.703 Z-4.5 I-0.392 J2.239
N4330 X56.464 Y38.612 Z-4.667 I-1.877 J-1.277
N4335 X58.114 Y35.178 Z-4.833 I1.934 J-1.184
N4340 X60.561 Y38.091 Z-5. I0.283 J2.247
N4345 X56.904 Y39.122 Z-5.167 I-2.162 J-0.665
N4350 X57.469 Y35.37 Z-5.333 I1.494 J-1.694
N4355 X60.653 Y37.426 Z-5.5 I0.928 J2.056
N4360 X56.141 I-2.256 J0.
N4365 X60.653 I2.256 J0.
N4370 G1 X60.682 Y38.348 F1000.
N4375 X60.683 Y38.463
N4380 X60.669 Y38.612
N4385 X60.639 Y38.759
N4390 X60.594 Y38.902
N4395 X60.536 Y39.041
N4400 X60.467 Y39.174
N4405 X60.388 Y39.301
N4410 X60.161 Y39.562
N4415 X59.896 Y39.783
N4420 X59.598 Y39.957
N4425 X59.275 Y40.08
N4430 X58.937 Y40.148
N4435 X58.817 Y40.163
N4440 X58.607 Y40.175
N4445 X58.073
N4450 X57.888 Y40.166
N4455 X57.739 Y40.151
N4460 X57.591 Y40.126
N4465 X57.445 Y40.092
N4470 X57.301 Y40.049
N4475 X57.16 Y39.997
N4480 X57.023 Y39.937
N4485 X56.889 Y39.869
N4490 X56.759 Y39.793
N4495 X56.635 Y39.71
N4500 X56.514 Y39.62
N4505 X56.4 Y39.524
N4510 X56.29 Y39.421
N4515 X56.187 Y39.313
N4520 X56.089 Y39.199
N4525 X55.998 Y39.079
N4530 X55.914 Y38.956
N4535 X55.836 Y38.827
N4540 X55.765 Y38.695
N4545 X55.701 Y38.559
N4550 X55.644 Y38.42
N4555 X55.595 Y38.279
N4560 X55.554 Y38.135
N4565 X55.52 Y37.989
N4570 X55.493 Y37.841
N4575 X55.474 Y37.692
N4580 X55.463 Y37.542
N4585 X55.46 Y37.393
N4590 X55.465 Y37.243
N4595 X55.477 Y37.093
N4600 X55.497 Y36.944
N4605 X55.525 Y36.797
N4610 X55.56 Y36.651
N4615 X55.603 Y36.507
N4620 X55.653 Y36.366
N4625 X55.71 Y36.227
N4630 X55.774 Y36.092
N4635 X55.845 Y35.96
N4640 X55.923 Y35.831
N4645 X56.007 Y35.707
N4650 X56.097 Y35.588
N4655 X56.194 Y35.473
N4660 X56.296 Y35.363
N4665 X56.404 Y35.258
N4670 X56.517 Y35.159
N4675 X56.54 Y35.141
N4680 X56.841 Y34.941
N4685 X57.172 Y34.795
N4690 X57.522 Y34.705
N4695 X57.882 Y34.675
N4700 X58.607
N4705 X58.817 Y34.687
N4710 X59.026 Y34.712
N4715 X59.201 Y34.742
N4720 X59.347 Y34.774
N4725 X59.491 Y34.816
N4730 X59.633 Y34.867
N4735 X59.77 Y34.926
N4740 X59.904 Y34.993
N4745 X60.034 Y35.068
N4750 X60.16 Y35.151
N4755 X60.28 Y35.241
N4760 X60.395 Y35.337
N4765 X60.504 Y35.439
N4770 X60.608 Y35.548
N4775 X60.706 Y35.662
N4780 X60.797 Y35.781
N4785 X60.881 Y35.905
N4790 X60.959 Y36.033
N4795 X61.037 Y36.178
N4800 X61.123 Y36.36
N4805 X61.216 Y36.585
N4810 X61.3 Y36.821
N4815 X61.364 Y37.034
N4820 X61.411 Y37.226
N4825 X61.448 Y37.414
N4830 X61.472 Y37.589
N4835 X61.477 Y37.636
N4840 X61.483 Y37.947
N4845 X61.445 Y38.256
N4850 X61.362 Y38.556
N4855 X61.238 Y38.842
N4860 G3 X60.42 Y39.066 Z-5.3 I-0.521 J-0.297
N4865 X60.188 Y38.829 I0.297 J-0.521
N4870 G1 X58.448 Y35.594
N4875 G3 X58.378 Y35.26 I0.528 J-0.284
N4880 X59.026 Y34.712 Z-5.5 I0.598 J0.05
N4885 G1 X59.445 Y34.762
N4890 X59.55 Y34.777
N4895 X59.655 Y34.807
N4900 X60.074 Y34.966
N4905 X60.179 Y35.01
N4910 X60.283 Y35.074
N4915 X60.612 Y35.301
N4920 X60.703 Y35.366
N4925 X60.844 Y35.511
N4930 X61.122 Y35.824
N4935 X61.163 Y35.877
N4940 X61.196 Y35.929
N4945 X61.416 Y36.348
N4950 X61.467 Y36.453
N4955 X61.498 Y36.558
N4960 X61.602 Y36.976
N4965 X61.624 Y37.081
N4970 X61.631 Y37.186
N4975 Y37.605
N4980 X61.63 Y37.709
N4985 X61.616 Y37.814
N4990 X61.487 Y38.338
N4995 X61.447 Y38.442
N5000 X61.228 Y38.861
N5005 X61.182 Y38.944
N5010 X61.122 Y39.026
N5015 X60.897 Y39.28
N5020 X60.703 Y39.484
N5025 X60.696 Y39.489
N5030 X60.395 Y39.699
N5035 X60.283 Y39.776
N5040 X60.179 Y39.841
N5045 X60.074 Y39.884
N5050 X59.655 Y40.043
N5055 X59.55 Y40.073
N5060 X59.445 Y40.088
N5065 X58.937 Y40.148
N5070 X58.905 Y40.15
N5075 X58.858 Y40.152
N5080 X58.073 Y40.175
N5085 X57.025
N5090 X56.875 Y40.167
N5095 X56.726 Y40.15
N5100 X56.579 Y40.118
N5105 X56.437 Y40.072
N5110 X56.298 Y40.015
N5115 X56.164 Y39.948
N5120 X56.034 Y39.872
N5125 X55.911 Y39.787
N5130 X55.792 Y39.695
N5135 X55.68 Y39.596
N5140 X55.573 Y39.49
N5145 X55.473 Y39.379
N5150 X55.378 Y39.262
N5155 X55.29 Y39.141
N5160 X55.209 Y39.015
N5165 X55.133 Y38.884
N5170 X55.062 Y38.747
N5175 X54.998 Y38.604
N5180 X54.939 Y38.455
N5185 X54.887 Y38.302
N5190 X54.843 Y38.145
N5195 X54.806 Y37.984
N5200 X54.777 Y37.82
N5205 X54.756 Y37.654
N5210 X54.744 Y37.485
N5215 X54.739 Y37.314
N5220 X54.743 Y37.142
N5225 X54.756 Y36.969
N5230 X54.778 Y36.795
N5235 X54.809 Y36.622
N5240 X54.848 Y36.45
N5245 X54.896 Y36.279
N5250 X54.953 Y36.11
N5255 X54.977 Y36.049
N5260 X55.141 Y35.718
N5265 X55.359 Y35.419
N5270 X55.625 Y35.162
N5275 X55.93 Y34.954
N5280 X56.267 Y34.8
N5285 X56.625 Y34.707
N5290 X56.993 Y34.675
N5295 X57.882
N5300 G3 X58.461 Y35.295 Z-5.3 I-0.021 J0.6
N5305 G1 X58.45 Y35.392
N5310 X57.619 Y39.557
N5315 X57.592 Y39.693 Z-5.329
N5320 G3 X57.025 Y40.175 Z-5.5 I-0.588 J-0.117
N5325 G1 X56.186
N5330 X56.037 Y40.167
N5335 X55.889 Y40.144
N5340 X55.744 Y40.104
N5345 X55.604 Y40.051
N5350 X55.468 Y39.986
N5355 X55.338 Y39.912
N5360 X55.214 Y39.828
N5365 X55.095 Y39.737
N5370 X54.982 Y39.638
N5375 X54.875 Y39.533
N5380 X54.774 Y39.422
N5385 X54.679 Y39.305
N5390 X54.591 Y39.184
N5395 X54.506 Y39.055
N5400 X54.424 Y38.916
N5405 X54.348 Y38.771
N5410 X54.278 Y38.619
N5415 X54.214 Y38.46
N5420 X54.158 Y38.295
N5425 X54.108 Y38.123
N5430 X54.066 Y37.946
N5435 X54.032 Y37.762
N5440 X54.007 Y37.574
N5445 X53.992 Y37.382
N5450 X53.986 Y37.203
N5455 X53.989 Y37.025
N5460 X54.002 Y36.829
N5465 X54.022 Y36.663
N5470 X54.049 Y36.501
N5475 X54.089 Y36.321
N5480 X54.132 Y36.166
N5485 X54.18 Y36.021
N5490 X54.338 Y35.697
N5495 X54.549 Y35.404
N5500 X54.807 Y35.152
N5505 X55.105 Y34.948
N5510 X55.433 Y34.798
N5515 X55.781 Y34.706
N5520 X56.141 Y34.675
N5525 X56.993
N5530 G3 X57.572 Y35.295 Z-5.3 I-0.021 J0.6
N5535 G1 X57.562 Y35.385
N5540 X56.78 Y39.557
N5545 X56.755 Y39.686 Z-5.328
N5550 X56.746 Y39.727 Z-5.337
N5555 G3 X56.186 Y40.175 Z-5.5 I-0.581 J-0.152
N5560 G1 X55.463
N5565 X55.314 Y40.167
N5570 X55.165 Y40.146
N5575 X55.02 Y40.107
N5580 X54.88 Y40.054
N5585 X54.744 Y39.99
N5590 X54.614 Y39.915
N5595 X54.49 Y39.832
N5600 X54.371 Y39.74
N5605 X54.258 Y39.641
N5610 X54.151 Y39.536
N5615 X54.05 Y39.426
N5620 X53.954 Y39.31
N5625 X53.861 Y39.184
N5630 X53.771 Y39.048
N5635 X53.685 Y38.904
N5640 X53.605 Y38.753
N5645 X53.53 Y38.593
N5650 X53.462 Y38.427
N5655 X53.4 Y38.251
N5660 X53.347 Y38.07
N5665 X53.302 Y37.885
N5670 X53.266 Y37.695
N5675 X53.239 Y37.502
N5680 X53.222 Y37.309
N5685 X53.216 Y37.139
N5690 X53.218 Y36.961
N5695 X53.23 Y36.774
N5700 X53.247 Y36.617
N5705 X53.274 Y36.456
N5710 X53.311 Y36.282
N5715 X53.351 Y36.134
N5720 X53.498 Y35.786
N5725 X53.706 Y35.47
N5730 X53.967 Y35.197
N5735 X54.273 Y34.974
N5740 X54.613 Y34.81
N5745 X54.978 Y34.709
N5750 X55.354 Y34.675
N5755 X56.141
N5760 G3 X56.72 Y35.295 Z-5.3 I-0.021 J0.6
N5765 G1 X56.713 Y35.368
N5770 X56.053 Y39.556
N5775 X56.035 Y39.669 Z-5.324
N5780 G3 X55.463 Y40.175 Z-5.5 I-0.593 J-0.093
N5785 G1 X54.72
N5790 X54.57 Y40.167
N5795 X54.422 Y40.143
N5800 X54.277 Y40.103
N5805 X54.137 Y40.049
N5810 X54.002 Y39.984
N5815 X53.872 Y39.909
N5820 X53.748 Y39.825
N5825 X53.629 Y39.733
N5830 X53.516 Y39.634
N5835 X53.409 Y39.53
N5840 X53.307 Y39.419
N5845 X53.208 Y39.3
N5850 X53.111 Y39.171
N5855 X53.018 Y39.032
N5860 X52.929 Y38.885
N5865 X52.845 Y38.73
N5870 X52.768 Y38.567
N5875 X52.697 Y38.397
N5880 X52.634 Y38.219
N5885 X52.579 Y38.038
N5890 X52.533 Y37.852
N5895 X52.495 Y37.662
N5900 X52.468 Y37.47
N5905 X52.452 Y37.302
N5910 X52.444 Y37.127
N5915 X52.445 Y36.937
N5920 X52.454 Y36.777
N5925 X52.471 Y36.621
N5930 X52.499 Y36.443
N5935 X52.531 Y36.287
N5940 X52.569 Y36.142
N5945 X52.714 Y35.797
N5950 X52.918 Y35.483
N5955 X53.174 Y35.21
N5960 X53.474 Y34.986
N5965 X53.81 Y34.82
N5970 X54.169 Y34.715
N5975 X54.542 Y34.676
N5980 X54.625 Y34.675
N5985 X55.354
N5990 G3 X55.933 Y35.295 Z-5.3 I-0.021 J0.6
N5995 G1 X55.927 Y35.362
N6000 X55.308 Y39.556
N6005 X55.292 Y39.663 Z-5.323
N6010 G3 X54.72 Y40.175 Z-5.5 I-0.594 J-0.088
N6015 G1 X54.625
N6020 X54.416 Y40.172
N6025 X53.881 Y40.137
N6030 X53.732 Y40.12
N6035 X53.586 Y40.088
N6040 X53.443 Y40.041
N6045 X53.305 Y39.982
N6050 X53.173 Y39.912
N6055 X53.046 Y39.832
N6060 X52.924 Y39.745
N6065 X52.808 Y39.65
N6070 X52.698 Y39.548
N6075 X52.593 Y39.441
N6080 X52.492 Y39.326
N6085 X52.394 Y39.203
N6090 X52.299 Y39.07
N6095 X52.207 Y38.927
N6100 X52.12 Y38.776
N6105 X52.039 Y38.617
N6110 X51.964 Y38.451
N6115 X51.897 Y38.278
N6120 X51.838 Y38.102
N6125 X51.787 Y37.921
N6130 X51.745 Y37.735
N6135 X51.712 Y37.547
N6140 X51.691 Y37.37
N6145 X51.679 Y37.207
N6150 X51.675 Y37.019
N6155 X51.679 Y36.849
N6160 X51.691 Y36.699
N6165 X51.713 Y36.528
N6170 X51.719 Y36.493
N6175 X51.816 Y36.134
N6180 X51.973 Y35.797
N6185 X52.185 Y35.492
N6190 X52.446 Y35.227
N6195 X52.748 Y35.011
N6200 X53.083 Y34.85
N6205 G3 X53.844 Y35.224 Z-5.3 I0.193 J0.568
N6210 G1 X53.859 Y35.276
N6215 X53.87 Y35.328
N6220 X54.492 Y39.448
N6225 X54.498 Y39.502
N6230 X54.499 Y39.556
N6235 G3 X53.881 Y40.137 Z-5.5 I-0.6 J-0.018
N6240 G1 X53.787 Y40.131
N6245 X53.649 Y40.118
N6250 X53.368 Y40.084
N6255 X53.263 Y40.065
N6260 X53.158 Y40.029
N6265 X52.739 Y39.87
N6270 X52.634 Y39.82
N6275 X52.53 Y39.75
N6280 X52.32 Y39.605
N6285 X52.154 Y39.489
N6290 X52.11 Y39.453
N6295 X51.953 Y39.28
N6300 X51.767 Y39.071
N6305 X51.691 Y38.979
N6310 X51.622 Y38.861
N6315 X51.403 Y38.442
N6320 X51.363 Y38.338
N6325 X51.234 Y37.814
N6330 X51.22 Y37.709
N6335 X51.219 Y37.605
N6340 Y37.186
N6345 X51.226 Y37.081
N6350 X51.248 Y36.976
N6355 X51.352 Y36.558
N6360 X51.383 Y36.453
N6365 X51.434 Y36.348
N6370 X51.654 Y35.929
N6375 X51.691 Y35.871
N6380 X51.82 Y35.72
N6385 X52.006 Y35.511
N6390 X52.11 Y35.397
N6395 X52.238 Y35.301
N6400 X52.541 Y35.092
N6405 X52.64 Y35.026
N6410 X52.739 Y34.98
N6415 X53.158 Y34.821
N6420 X53.263 Y34.785
N6425 X53.368 Y34.766
N6430 X53.577 Y34.741
N6435 X53.787 Y34.719
N6440 X54.416 Y34.678
N6445 X54.542 Y34.676
N6450 G3 X55.112 Y35.132 I-0.012 J0.6
N6455 G1 X55.135 Y35.223 Z-5.493
N6460 X55.157 Y35.312 Z-5.471
N6465 X55.178 Y35.397 Z-5.435
N6470 X55.197 Y35.475 Z-5.385
N6475 X55.214 Y35.544 Z-5.324
N6480 X55.229 Y35.603 Z-5.253
N6485 X55.241 Y35.651 Z-5.172
N6490 X55.249 Y35.686 Z-5.085
N6495 X55.255 Y35.707 Z-4.994
N6500 X55.256 Y35.715 Z-4.9
N6505 Z15.
(WHEN USING FUSION FOR PERSONAL USE, THE FEEDRATE OF RAPID)
(MOVES IS REDUCED TO MATCH THE FEEDRATE OF CUTTING MOVES,)
(WHICH CAN INCREASE MACHINING TIME. UNRESTRICTED RAPID MOVES)
(ARE AVAILABLE WITH A FUSION SUBSCRIPTION.)
(2D CONTOUR1)
N6510 G64 P0.01 Q0.01
N6515 G0 X53.325 Y36.225
N6520 G1 Z15. F1000.
N6525 Z5.
N6530 Z1. F333.33
N6535 Z-4.9
N6540 G19 G2 Y35.625 Z-5.5 J-0.6 K0. F1000.
N6545 G1 Y35.025
N6550 G17 G3 X53.925 Y34.425 I0.6 J0.
N6555 G1 X58.925
N6560 G3 Y40.425 I0. J3.
N6565 G1 X53.925
N6570 G3 Y34.425 I0. J-3.
N6575 G1 X58.925
N6580 G3 Y40.425 I0. J3.
N6585 G1 X53.925
N6590 G3 Y34.425 I0. J-3.
N6595 X54.525 Y35.025 I0. J0.6
N6600 G1 Y35.625
N6605 G19 G3 Y36.225 Z-4.9 J0. K0.6
N6610 G1 Z5.
N6615 X87.6 Y4.2
N6620 Z1. F333.33
N6625 Z-4.9
N6630 G3 Y4.8 Z-5.5 J0.6 K0. F1000.
N6635 G1 Y5.4
N6640 G17 G3 X87. Y6. I-0.6 J0.
N6645 G1 X8.
N6650 G2 X2. Y12. I0. J6.
N6655 G1 Y63.
N6660 G2 X8. Y69. I6. J0.
N6665 G1 X87.
N6670 G2 X93. Y63. I0. J-6.
N6675 G1 Y12.
N6680 G2 X87. Y6. I-6. J0.
N6685 G1 X8.
N6690 G2 X2. Y12. I0. J6.
N6695 G1 Y63.
N6700 G2 X8. Y69. I6. J0.
N6705 G1 X87.
N6710 G2 X93. Y63. I0. J-6.
N6715 G1 Y12.
N6720 G2 X87. Y6. I-6. J0.
N6725 G3 X86.4 Y5.4 I0. J-0.6
N6730 G1 Y4.8
N6735 G19 G2 Y4.2 Z-4.9 J0. K0.6
N6740 G1 Z15.
N6745 G17
N6750 M5
N6755 M9
N6760 M30
%
