%
(AXIS0_MOTOREXTENSION_OP101_FACING)
(T4 D=20. CR=2. - ZMIN=-0.5 - FACE MILL)
N10 G90 G94 G17 G91.1
N15 G21
(-ATTENTION- PROPERTY SAFE RETRACTS IS SET TO CLEARANCE HEIGHT.)
(ENSURE THE CLEARANCE HEIGHT WILL CLEAR THE PART AND OR FIXTURES.)
(RAISE THE Z-AXIS TO A SAFE HEIGHT BEFORE STARTING THE PROGRAM.)
(WHEN USING FUSION FOR PERSONAL USE, THE FEEDRATE OF RAPID)
(MOVES IS REDUCED TO MATCH THE FEEDRATE OF CUTTING MOVES,)
(WHICH CAN INCREASE MACHINING TIME. UNRESTRICTED RAPID MOVES)
(ARE AVAILABLE WITH A FUSION SUBSCRIPTION.)
(FACE1)
N20 T4 M6
N25 S16000 M3
N30 G17 G90 G94
N35 G54
N40 G64 P0.01 Q0.01
N45 M8
N50 G0 X109.01 Y-2.196
N55 G43 Z15. H4
N60 G1 Z5. F1000.
N65 Z1.5 F333.33
N70 G18 G3 X107.01 Z-0.5 I-2. K0. F1000.
N75 G1 X-12.01
N80 G17 G2 Y5.528 I0. J3.862
N85 G1 X107.01
N90 G3 Y13.252 I0. J3.862
N95 G1 X-12.01
N100 G2 Y20.976 I0. J3.862
N105 G1 X107.01
N110 G3 Y28.7 I0. J3.862
N115 G1 X-12.01
N120 G2 Y36.424 I0. J3.862
N125 G1 X107.01
N130 G3 Y44.148 I0. J3.862
N135 G1 X-12.01
N140 G2 Y51.872 I0. J3.862
N145 G1 X107.01
N150 G3 Y59.596 I0. J3.862
N155 G1 X-12.01
N160 G2 Y67.32 I0. J3.862
N165 G1 X107.01
N170 G18 G2 X109.01 Z1.5 I0. K2.
N175 G1 Z15.
N180 G17
N185 M5
N190 M9
N195 M30
%
