%
(AXIS0_MOTOREXTENSION_OP104_DRILLING)
(T5 D=5. CR=0. TAPER=118DEG - ZMIN=-3. - CENTER DRILL)
N10 G90 G94 G17 G91.1
N15 G21
(-ATTENTION- PROPERTY SAFE RETRACTS IS SET TO CLEARANCE HEIGHT.)
(ENSURE THE CLEARANCE HEIGHT WILL CLEAR THE PART AND OR FIXTURES.)
(RAISE THE Z-AXIS TO A SAFE HEIGHT BEFORE STARTING THE PROGRAM.)
(DRILL1)
N20 T5 M6
N25 S16000 M3
N30 G17 G90 G94
N35 G54
N40 M8
N45 G0 X27.85 Y61.
N50 G43 Z15. H5
N55 G0 Z5.
N60 G98 G81 X27.85 Y61. Z-3. R4.5 F333.33
N65 X15. Y52.5
N70 Y22.5
N75 X27.85 Y13.85
N80 X55. Y16.5
N85 X75.
N90 X85. Y13.85
N95 Y61.
N100 X75. Y58.5
N105 X55.
N110 G80
N115 G0 Z15.
N120 M5
N125 M9
N130 M30
%
