%
(AXIS0_MOTOREXTENSIONOP103_CHAFER)
(T7 D=6. CR=0. TAPER=45DEG - ZMIN=-1.8 - CHAMFER MILL)
N10 G90 G94 G17 G91.1
N15 G21
(-ATTENTION- PROPERTY SAFE RETRACTS IS SET TO CLEARANCE HEIGHT.)
(ENSURE THE CLEARANCE HEIGHT WILL CLEAR THE PART AND OR FIXTURES.)
(RAISE THE Z-AXIS TO A SAFE HEIGHT BEFORE STARTING THE PROGRAM.)
(WHEN USING FUSION FOR PERSONAL USE, THE FEEDRATE OF RAPID)
(MOVES IS REDUCED TO MATCH THE FEEDRATE OF CUTTING MOVES,)
(WHICH CAN INCREASE MACHINING TIME. UNRESTRICTED RAPID MOVES)
(ARE AVAILABLE WITH A FUSION SUBSCRIPTION.)
(2D CHAMFER1)
N20 T7 M6
N25 S16000 M3
N30 G17 G90 G94
N35 G54
N40 G64 P0.01 Q0.01
N45 M8
N50 G0 X53.925 Y33.025
N55 G43 Z15. H7
N60 G1 Z5. F750.
N65 Z2. F333.33
N70 Z-1.8
N75 Y32.425 F750.
N80 X58.925
N85 G3 Y42.425 I0. J5.
N90 G1 X53.925
N95 G3 Y32.425 I0. J-5.
N100 G1 Y33.025
N105 Z5.
N110 X87. Y7.4
N115 Z2. F333.33
N120 Z-1.8
N125 Y8. F750.
N130 X8.
N135 G2 X4. Y12. I0. J4.
N140 G1 Y63.
N145 G2 X8. Y67. I4. J0.
N150 G1 X87.
N155 G2 X91. Y63. I0. J-4.
N160 G1 Y12.
N165 G2 X87. Y8. I-4. J0.
N170 G1 Y7.4
N175 Z15.
N180 M5
N185 M9
N190 M30
%
