%
(AXIS0_MOTOREXTENSION_OP201_FACING)
(T4 D=20. CR=2. - ZMIN=-2.5 - FACE MILL)
N10 G90 G94 G17 G91.1
N15 G21
(-ATTENTION- PROPERTY SAFE RETRACTS IS SET TO CLEARANCE HEIGHT.)
(ENSURE THE CLEARANCE HEIGHT WILL CLEAR THE PART AND OR FIXTURES.)
(RAISE THE Z-AXIS TO A SAFE HEIGHT BEFORE STARTING THE PROGRAM.)
(WHEN USING FUSION FOR PERSONAL USE, THE FEEDRATE OF RAPID)
(MOVES IS REDUCED TO MATCH THE FEEDRATE OF CUTTING MOVES,)
(WHICH CAN INCREASE MACHINING TIME. UNRESTRICTED RAPID MOVES)
(ARE AVAILABLE WITH A FUSION SUBSCRIPTION.)
(FACE2)
N20 T4 M6
N25 S16000 M3
N30 G17 G90 G94
N35 G54
N40 G64 P0.01 Q0.01
N45 M8
N50 G0 X107.774 Y-2.196
N55 G43 Z15. H4
N60 G1 Z5. F1000.
N65 Z1.5 F333.33
N70 G18 G3 X105.774 Z-0.5 I-2. K0. F1000.
N75 G1 X105.01
N80 X-10.01
N85 G17 G2 Y5.528 I0. J3.862
N90 G1 X105.01
N95 G3 Y13.252 I0. J3.862
N100 G1 X-10.01
N105 G2 Y20.976 I0. J3.862
N110 G1 X105.01
N115 G3 Y28.7 I0. J3.862
N120 G1 X-10.01
N125 G2 Y36.424 I0. J3.862
N130 G1 X105.01
N135 G3 Y44.148 I0. J3.862
N140 G1 X-10.01
N145 G2 Y51.872 I0. J3.862
N150 G1 X105.01
N155 G3 Y59.596 I0. J3.862
N160 G1 X-10.01
N165 G2 Y67.32 I0. J3.862
N170 G1 X105.01
N175 G18 G2 X107.01 Z1.5 I0. K2.
N180 G1 Z5.
N185 X107.774 Y-2.196
N190 Z1. F333.33
N195 G3 X105.774 Z-1. I-2. K0. F1000.
N200 G1 X105.01
N205 X-10.01
N210 G17 G2 Y5.528 I0. J3.862
N215 G1 X105.01
N220 G3 Y13.252 I0. J3.862
N225 G1 X-10.01
N230 G2 Y20.976 I0. J3.862
N235 G1 X105.01
N240 G3 Y28.7 I0. J3.862
N245 G1 X-10.01
N250 G2 Y36.424 I0. J3.862
N255 G1 X105.01
N260 G3 Y44.148 I0. J3.862
N265 G1 X-10.01
N270 G2 Y51.872 I0. J3.862
N275 G1 X105.01
N280 G3 Y59.596 I0. J3.862
N285 G1 X-10.01
N290 G2 Y67.32 I0. J3.862
N295 G1 X105.01
N300 G18 G2 X107.01 Z1. I0. K2.
N305 G1 Z5.
N310 X107.774 Y-2.196
N315 Z0.5 F333.33
N320 G3 X105.774 Z-1.5 I-2. K0. F1000.
N325 G1 X105.01
N330 X-10.01
N335 G17 G2 Y5.528 I0. J3.862
N340 G1 X105.01
N345 G3 Y13.252 I0. J3.862
N350 G1 X-10.01
N355 G2 Y20.976 I0. J3.862
N360 G1 X105.01
N365 G3 Y28.7 I0. J3.862
N370 G1 X-10.01
N375 G2 Y36.424 I0. J3.862
N380 G1 X105.01
N385 G3 Y44.148 I0. J3.862
N390 G1 X-10.01
N395 G2 Y51.872 I0. J3.862
N400 G1 X105.01
N405 G3 Y59.596 I0. J3.862
N410 G1 X-10.01
N415 G2 Y67.32 I0. J3.862
N420 G1 X105.01
N425 G18 G2 X107.01 Z0.5 I0. K2.
N430 G1 Z5.
N435 X107.774 Y-2.196
N440 Z0. F333.33
N445 G3 X105.774 Z-2. I-2. K0. F1000.
N450 G1 X105.01
N455 X-10.01
N460 G17 G2 Y5.528 I0. J3.862
N465 G1 X105.01
N470 G3 Y13.252 I0. J3.862
N475 G1 X-10.01
N480 G2 Y20.976 I0. J3.862
N485 G1 X105.01
N490 G3 Y28.7 I0. J3.862
N495 G1 X-10.01
N500 G2 Y36.424 I0. J3.862
N505 G1 X105.01
N510 G3 Y44.148 I0. J3.862
N515 G1 X-10.01
N520 G2 Y51.872 I0. J3.862
N525 G1 X105.01
N530 G3 Y59.596 I0. J3.862
N535 G1 X-10.01
N540 G2 Y67.32 I0. J3.862
N545 G1 X105.01
N550 G18 G2 X107.01 Z0. I0. K2.
N555 G1 Z5.
N560 X107.774 Y-2.196
N565 Z-0.5 F333.33
N570 G3 X105.774 Z-2.5 I-2. K0. F1000.
N575 G1 X105.01
N580 X-10.01
N585 G17 G2 Y5.528 I0. J3.862
N590 G1 X105.01
N595 G3 Y13.252 I0. J3.862
N600 G1 X-10.01
N605 G2 Y20.976 I0. J3.862
N610 G1 X105.01
N615 G3 Y28.7 I0. J3.862
N620 G1 X-10.01
N625 G2 Y36.424 I0. J3.862
N630 G1 X105.01
N635 G3 Y44.148 I0. J3.862
N640 G1 X-10.01
N645 G2 Y51.872 I0. J3.862
N650 G1 X105.01
N655 G3 Y59.596 I0. J3.862
N660 G1 X-10.01
N665 G2 Y67.32 I0. J3.862
N670 G1 X105.01
N675 G18 G2 X107.01 Z-0.5 I0. K2.
N680 G1 Z15.
N685 G17
N690 M5
N695 M9
N700 M30
%
